[{"OBJECT_NAME":"HAWK-11C","OBJECT_ID":"2024-247E","EPOCH":"2026-03-09T12:17:35.407968","MEAN_MOTION":15.2884802,"ECCENTRICITY":0.00059001,"INCLINATION":45.0045,"RA_OF_ASC_NODE":114.8762,"ARG_OF_PERICENTER":329.704,"MEAN_ANOMALY":30.3502,"EPHEMERIS_TYPE":0,"CLASSIFICATION_TYPE":"U","NORAD_CAT_ID":62381,"ELEMENT_SET_NO":999,"REV_AT_EPOCH":6774,"BSTAR":0.00033290115,"MEAN_MOTION_DOT":9.223e-5,"MEAN_MOTION_DDOT":0},{"OBJECT_NAME":"STARLINK-35214","OBJECT_ID":"2025-216P","EPOCH":"2026-03-09T22:50:26.200032","MEAN_MOTION":15.30211968,"ECCENTRICITY":8.667e-5,"INCLINATION":53.1576,"RA_OF_ASC_NODE":331.6751,"ARG_OF_PERICENTER":114.7617,"MEAN_ANOMALY":245.3474,"EPHEMERIS_TYPE":0,"CLASSIFICATION_TYPE":"U","NORAD_CAT_ID":65747,"ELEMENT_SET_NO":999,"REV_AT_EPOCH":2658,"BSTAR":0.0012882441,"MEAN_MOTION_DOT":0.00038004,"MEAN_MOTION_DDOT":0}]
